start=new Date('2023-01-31T00:00:00.000Z').valueOf();
sats=[{"MEAN_ANOMALY":"266.0826","SEMIMAJOR_AXIS":"6917.932","INCLINATION":"53.2174","CENTER_NAME":"EARTH","PERIAPSIS":"538.489","LAUNCH_DATE":"2022-07-07","TLE_LINE1":"1 53015U 22076AF  23030.98781289 -.00002381  00000-0 -13162-3 0  9993","RCS_SIZE":"LARGE","TIME_SYSTEM":"UTC","RA_OF_ASC_NODE":"133.5192","NORAD_CAT_ID":"53015","APOAPSIS":"541.104","FILE":"3765820","EPHEMERIS_TYPE":"0","MEAN_MOTION":"15.08823147","REV_AT_EPOCH":"3230","GP_ID":"224031314","ARG_OF_PERICENTER":"94.0382","ELEMENT_SET_NO":"999","OBJECT_TYPE":"PAYLOAD","SITE":"AFETR","DECAY_DATE":null,"REF_FRAME":"TEME","OBJECT_ID":"2022-076AF","EPOCH":"2023-01-30T23:42:27.033696","BSTAR":"-0.00013162000000","MEAN_MOTION_DOT":"-0.00002381","COUNTRY_CODE":"US","MEAN_ELEMENT_THEORY":"SGP4","MEAN_MOTION_DDOT":"0.0000000000000","OBJECT_NAME":"STARLINK-4262","PERIOD":"95.439","TLE_LINE2":"2 53015  53.2174 133.5192 0001890  94.0382 266.0826 15.08823147 32303","CLASSIFICATION_TYPE":"U","ECCENTRICITY":"0.00018900"},{"SEMIMAJOR_AXIS":"6917.913","MEAN_ANOMALY":"262.5202","LAUNCH_DATE":"2022-07-07","PERIAPSIS":"538.702","CENTER_NAME":"EARTH","INCLINATION":"53.2140","ARG_OF_PERICENTER":"97.5967","GP_ID":"223997614","REV_AT_EPOCH":"3175","MEAN_MOTION":"15.08829307","FILE":"3765576","EPHEMERIS_TYPE":"0","APOAPSIS":"540.855","NORAD_CAT_ID":"53016","RA_OF_ASC_NODE":"135.8398","RCS_SIZE":"LARGE","TIME_SYSTEM":"UTC","TLE_LINE1":"1 53016U 22076AG  23030.46892541  .00000938  00000-0  77028-4 0  9997","SITE":"AFETR","OBJECT_TYPE":"PAYLOAD","ELEMENT_SET_NO":"999","EPOCH":"2023-01-30T11:15:15.155424","OBJECT_ID":"2022-076AG","REF_FRAME":"TEME","DECAY_DATE":null,"MEAN_ELEMENT_THEORY":"SGP4","MEAN_MOTION_DDOT":"0.0000000000000","OBJECT_NAME":"STARLINK-4283","COUNTRY_CODE":"US","MEAN_MOTION_DOT":"0.00000938","BSTAR":"0.00007702800000","TLE_LINE2":"2 53016  53.2140 135.8398 0001556  97.5967 262.5202 15.08829307 31757","PERIOD":"95.438","ECCENTRICITY":"0.00015560","CLASSIFICATION_TYPE":"U"},{"OBJECT_TYPE":"PAYLOAD","SITE":"AFETR","ELEMENT_SET_NO":"999","RCS_SIZE":"LARGE","TIME_SYSTEM":"UTC","RA_OF_ASC_NODE":"135.9081","NORAD_CAT_ID":"53017","APOAPSIS":"540.592","TLE_LINE1":"1 53017U 22076AH  23030.45420611 -.00003281  00000-0 -18805-3 0  9995","MEAN_MOTION":"15.08853922","GP_ID":"223997363","ARG_OF_PERICENTER":"103.5759","REV_AT_EPOCH":"3176","EPHEMERIS_TYPE":"0","FILE":"3765576","INCLINATION":"53.2191","PERIAPSIS":"538.813","LAUNCH_DATE":"2022-07-07","CENTER_NAME":"EARTH","MEAN_ANOMALY":"256.5376","SEMIMAJOR_AXIS":"6917.838","ECCENTRICITY":"0.00012860","CLASSIFICATION_TYPE":"U","PERIOD":"95.437","TLE_LINE2":"2 53017  53.2191 135.9081 0001286 103.5759 256.5376 15.08853922 31767","BSTAR":"-0.00018805000000","MEAN_MOTION_DOT":"-0.00003281","COUNTRY_CODE":"US","OBJECT_NAME":"STARLINK-4281","MEAN_MOTION_DDOT":"0.0000000000000","MEAN_ELEMENT_THEORY":"SGP4","REF_FRAME":"TEME","OBJECT_ID":"2022-076AH","EPOCH":"2023-01-30T10:54:03.407904","DECAY_DATE":null},{"SEMIMAJOR_AXIS":"6917.859","MEAN_ANOMALY":"248.9165","CENTER_NAME":"EARTH","PERIAPSIS":"538.979","LAUNCH_DATE":"2022-07-07","INCLINATION":"53.2153","FILE":"3765820","EPHEMERIS_TYPE":"0","REV_AT_EPOCH":"3230","GP_ID":"224031013","ARG_OF_PERICENTER":"111.1942","MEAN_MOTION":"15.08847097","TLE_LINE1":"1 53018U 22076AJ  23030.99611391  .00000388  00000-0  42476-4 0  9997","NORAD_CAT_ID":"53018","APOAPSIS":"540.469","TIME_SYSTEM":"UTC","RCS_SIZE":"LARGE","RA_OF_ASC_NODE":"133.4730","ELEMENT_SET_NO":"999","SITE":"AFETR","OBJECT_TYPE":"PAYLOAD","DECAY_DATE":null,"EPOCH":"2023-01-30T23:54:24.241824","OBJECT_ID":"2022-076AJ","REF_FRAME":"TEME","MEAN_MOTION_DDOT":"0.0000000000000","MEAN_ELEMENT_THEORY":"SGP4","OBJECT_NAME":"STARLINK-4279","COUNTRY_CODE":"US","MEAN_MOTION_DOT":"0.00000388","BSTAR":"0.00004247600000","TLE_LINE2":"2 53018  53.2153 133.4730 0001077 111.1942 248.9165 15.08847097 32305","PERIOD":"95.437","CLASSIFICATION_TYPE":"U","ECCENTRICITY":"0.00010770"},{"MEAN_ANOMALY":"263.5237","SEMIMAJOR_AXIS":"6917.888","INCLINATION":"53.2181","LAUNCH_DATE":"2022-07-07","PERIAPSIS":"538.923","CENTER_NAME":"EARTH","RCS_SIZE":"LARGE","TIME_SYSTEM":"UTC","RA_OF_ASC_NODE":"135.0451","APOAPSIS":"540.582","NORAD_CAT_ID":"53019","TLE_LINE1":"1 53019U 22076AK  23030.64555800 -.00000477  00000-0 -11909-4 0  9990","MEAN_MOTION":"15.08837541","ARG_OF_PERICENTER":"96.5891","GP_ID":"224056060","REV_AT_EPOCH":"3178","FILE":"3765849","EPHEMERIS_TYPE":"0","OBJECT_TYPE":"PAYLOAD","SITE":"AFETR","ELEMENT_SET_NO":"999","REF_FRAME":"TEME","EPOCH":"2023-01-30T15:29:36.211200","OBJECT_ID":"2022-076AK","DECAY_DATE":null,"BSTAR":"-0.00001190900000","MEAN_MOTION_DOT":"-0.00000477","COUNTRY_CODE":"US","OBJECT_NAME":"STARLINK-4282","MEAN_MOTION_DDOT":"0.0000000000000","MEAN_ELEMENT_THEORY":"SGP4","PERIOD":"95.438","TLE_LINE2":"2 53019  53.2181 135.0451 0001199  96.5891 263.5237 15.08837541 31786","ECCENTRICITY":"0.00011990","CLASSIFICATION_TYPE":"U"},{"ELEMENT_SET_NO":"999","OBJECT_TYPE":"PAYLOAD","SITE":"AFETR","TLE_LINE1":"1 53020U 22076AL  23030.99148041  .00001947  00000-0  14037-3 0  9990","RCS_SIZE":"LARGE","TIME_SYSTEM":"UTC","RA_OF_ASC_NODE":"133.4964","NORAD_CAT_ID":"53020","APOAPSIS":"540.689","FILE":"3765820","EPHEMERIS_TYPE":"0","MEAN_MOTION":"15.08842604","GP_ID":"224031319","REV_AT_EPOCH":"3230","ARG_OF_PERICENTER":"93.1595","INCLINATION":"53.2169","CENTER_NAME":"EARTH","PERIAPSIS":"538.786","LAUNCH_DATE":"2022-07-07","MEAN_ANOMALY":"266.9555","SEMIMAJOR_AXIS":"6917.872","CLASSIFICATION_TYPE":"U","ECCENTRICITY":"0.00013760","PERIOD":"95.437","TLE_LINE2":"2 53020  53.2169 133.4964 0001376  93.1595 266.9555 15.08842604 32301","BSTAR":"0.00014037000000","MEAN_MOTION_DOT":"0.00001947","COUNTRY_CODE":"US","MEAN_MOTION_DDOT":"0.0000000000000","OBJECT_NAME":"STARLINK-4287","MEAN_ELEMENT_THEORY":"SGP4","DECAY_DATE":null,"REF_FRAME":"TEME","EPOCH":"2023-01-30T23:47:43.907424","OBJECT_ID":"2022-076AL"},{"DECAY_DATE":null,"REF_FRAME":"TEME","EPOCH":"2023-01-30T12:08:14.366976","OBJECT_ID":"2022-076AM","BSTAR":"0.00011264000000","MEAN_MOTION_DOT":"0.00001505","COUNTRY_CODE":"US","OBJECT_NAME":"STARLINK-4203","MEAN_MOTION_DDOT":"0.0000000000000","MEAN_ELEMENT_THEORY":"SGP4","PERIOD":"95.438","TLE_LINE2":"2 53021  53.2176 135.6775 0001125  92.9713 267.1408 15.08838222 31765","CLASSIFICATION_TYPE":"U","ECCENTRICITY":"0.00011250","MEAN_ANOMALY":"267.1408","SEMIMAJOR_AXIS":"6917.886","INCLINATION":"53.2176","CENTER_NAME":"EARTH","PERIAPSIS":"538.973","LAUNCH_DATE":"2022-07-07","TLE_LINE1":"1 53021U 22076AM  23030.50572184  .00001505  00000-0  11264-3 0  9996","RCS_SIZE":"LARGE","RA_OF_ASC_NODE":"135.6775","TIME_SYSTEM":"UTC","NORAD_CAT_ID":"53021","APOAPSIS":"540.529","EPHEMERIS_TYPE":"0","FILE":"3765576","MEAN_MOTION":"15.08838222","GP_ID":"223997864","REV_AT_EPOCH":"3176","ARG_OF_PERICENTER":"92.9713","ELEMENT_SET_NO":"999","OBJECT_TYPE":"PAYLOAD","SITE":"AFETR"},{"PERIAPSIS":"538.589","LAUNCH_DATE":"2022-07-07","CENTER_NAME":"EARTH","INCLINATION":"53.2171","SEMIMAJOR_AXIS":"6917.881","MEAN_ANOMALY":"269.2476","SITE":"AFETR","OBJECT_TYPE":"PAYLOAD","ELEMENT_SET_NO":"999","REV_AT_EPOCH":"3230","GP_ID":"224031015","ARG_OF_PERICENTER":"90.8707","MEAN_MOTION":"15.08839813","EPHEMERIS_TYPE":"0","FILE":"3765820","APOAPSIS":"540.903","NORAD_CAT_ID":"53022","TIME_SYSTEM":"UTC","RCS_SIZE":"LARGE","RA_OF_ASC_NODE":"133.5437","TLE_LINE1":"1 53022U 22076AN  23030.98044130 -.00000430  00000-0 -89111-5 0  9990","MEAN_MOTION_DDOT":"0.0000000000000","OBJECT_NAME":"STARLINK-4216","MEAN_ELEMENT_THEORY":"SGP4","COUNTRY_CODE":"US","MEAN_MOTION_DOT":"-0.00000430","BSTAR":"-0.00000891110000","EPOCH":"2023-01-30T23:31:50.128320","OBJECT_ID":"2022-076AN","REF_FRAME":"TEME","DECAY_DATE":null,"ECCENTRICITY":"0.00016720","CLASSIFICATION_TYPE":"U","TLE_LINE2":"2 53022  53.2171 133.5437 0001672  90.8707 269.2476 15.08839813 32306","PERIOD":"95.438"},{"ECCENTRICITY":"0.00015680","CLASSIFICATION_TYPE":"U","TLE_LINE2":"2 53023  53.2180 133.9035 0001568 113.6754 246.4402 15.09286782 31829","PERIOD":"95.409","OBJECT_NAME":"STARLINK-4284","MEAN_MOTION_DDOT":"0.0000000000000","MEAN_ELEMENT_THEORY":"SGP4","COUNTRY_CODE":"US","MEAN_MOTION_DOT":"0.00055347","BSTAR":"0.00342640000000","OBJECT_ID":"2022-076AP","EPOCH":"2023-01-30T21:30:37.606176","REF_FRAME":"TEME","DECAY_DATE":null,"SITE":"AFETR","OBJECT_TYPE":"PAYLOAD","ELEMENT_SET_NO":"999","GP_ID":"224055562","REV_AT_EPOCH":"3182","ARG_OF_PERICENTER":"113.6754","MEAN_MOTION":"15.09286782","FILE":"3765849","EPHEMERIS_TYPE":"0","NORAD_CAT_ID":"53023","APOAPSIS":"539.465","RA_OF_ASC_NODE":"133.9035","RCS_SIZE":"LARGE","TIME_SYSTEM":"UTC","TLE_LINE1":"1 53023U 22076AP  23030.89626859  .00055347  00000-0  34264-2 0  9996","LAUNCH_DATE":"2022-07-07","PERIAPSIS":"537.296","CENTER_NAME":"EARTH","INCLINATION":"53.2180","SEMIMAJOR_AXIS":"6916.515","MEAN_ANOMALY":"246.4402"},{"DECAY_DATE":null,"REF_FRAME":"TEME","OBJECT_ID":"2022-076AQ","EPOCH":"2023-01-30T12:02:56.440896","COUNTRY_CODE":"US","MEAN_MOTION_DDOT":"0.0000000000000","MEAN_ELEMENT_THEORY":"SGP4","OBJECT_NAME":"STARLINK-4289","BSTAR":"0.00006797200000","MEAN_MOTION_DOT":"0.00000794","TLE_LINE2":"2 53024  53.2180 135.6809 0001247  96.6575 263.4559 15.08835041 31765","PERIOD":"95.438","CLASSIFICATION_TYPE":"U","ECCENTRICITY":"0.00012470","SEMIMAJOR_AXIS":"6917.896","MEAN_ANOMALY":"263.4559","CENTER_NAME":"EARTH","LAUNCH_DATE":"2022-07-07","PERIAPSIS":"538.898","INCLINATION":"53.2180","EPHEMERIS_TYPE":"0","FILE":"3765576","MEAN_MOTION":"15.08835041","ARG_OF_PERICENTER":"96.6575","GP_ID":"223997615","REV_AT_EPOCH":"3176","TLE_LINE1":"1 53024U 22076AQ  23030.50204214  .00000794  00000-0  67972-4 0  9992","RA_OF_ASC_NODE":"135.6809","RCS_SIZE":"LARGE","TIME_SYSTEM":"UTC","APOAPSIS":"540.623","NORAD_CAT_ID":"53024","ELEMENT_SET_NO":"999","OBJECT_TYPE":"PAYLOAD","SITE":"AFETR"}];
